{
  "type": "FeatureCollection",
  "features": [
    {
      "type": "Feature",
      "properties": {
        "norad_id": 34944,
        "name": "COSMOS 2251 DEB",
        "group": "cosmos-2251-debris",
        "lat": 67.23523847279635,
        "lon": -110.29528075401839,
        "alt_km": 691.2789040927619,
        "timestamp": "2025-12-27T08:36:18.780193+00:00",
        "meta_object_name": "COSMOS 2251 DEB",
        "meta_object_id": "1993-036ADX",
        "meta_epoch": "2025-12-26T23:46:57.347328",
        "meta_mean_motion": 14.1421341,
        "meta_eccentricity": 0.0220127,
        "meta_inclination": 73.7465,
        "meta_ra_of_asc_node": 206.3261,
        "meta_arg_of_pericenter": 51.4862,
        "meta_mean_anomaly": 310.5788,
        "meta_ephemeris_type": 0,
        "meta_classification_type": "U",
        "meta_norad_cat_id": 34944,
        "meta_element_set_no": 999,
        "meta_rev_at_epoch": 64284,
        "meta_bstar": 0.00048728,
        "meta_mean_motion_dot": 1.146e-05,
        "meta_mean_motion_ddot": 0,
        "tle_line1": "1 34944U 93036ADX 25360.99094152  .00001146  00000+0  48728-3 0  9993",
        "tle_line2": "2 34944  73.7465 206.3261 0220127  51.4862 310.5788 14.14213410642845"
      },
      "geometry": {
        "type": "Point",
        "coordinates": [
          -110.29528075401839,
          67.23523847279635
        ]
      }
    },
    {
      "type": "Feature",
      "properties": {
        "norad_id": 34946,
        "name": "COSMOS 2251 DEB",
        "group": "cosmos-2251-debris",
        "lat": 12.350163998638262,
        "lon": 130.51171584732862,
        "alt_km": 681.4375019413519,
        "timestamp": "2025-12-27T08:36:18.780203+00:00",
        "meta_object_name": "COSMOS 2251 DEB",
        "meta_object_id": "1993-036ADZ",
        "meta_epoch": "2025-12-25T14:47:39.171840",
        "meta_mean_motion": 14.62063555,
        "meta_eccentricity": 0.0048508,
        "meta_inclination": 74.0243,
        "meta_ra_of_asc_node": 317.4443,
        "meta_arg_of_pericenter": 90.5194,
        "meta_mean_anomaly": 270.1532,
        "meta_ephemeris_type": 0,
        "meta_classification_type": "U",
        "meta_norad_cat_id": 34946,
        "meta_element_set_no": 999,
        "meta_rev_at_epoch": 88397,
        "meta_bstar": 0.00064563,
        "meta_mean_motion_dot": 3.267e-05,
        "meta_mean_motion_ddot": 0,
        "tle_line1": "1 34946U 93036ADZ 25359.61642560  .00003267  00000+0  64563-3 0  9995",
        "tle_line2": "2 34946  74.0243 317.4443 0048508  90.5194 270.1532 14.62063555883979"
      },
      "geometry": {
        "type": "Point",
        "coordinates": [
          130.51171584732862,
          12.350163998638262
        ]
      }
    },
    {
      "type": "Feature",
      "properties": {
        "norad_id": 34949,
        "name": "COSMOS 2251 DEB",
        "group": "cosmos-2251-debris",
        "lat": -22.333299631621525,
        "lon": 74.33777869444673,
        "alt_km": 675.1186220915779,
        "timestamp": "2025-12-27T08:36:18.780213+00:00",
        "meta_object_name": "COSMOS 2251 DEB",
        "meta_object_id": "1993-036AEC",
        "meta_epoch": "2025-12-25T22:30:24.026112",
        "meta_mean_motion": 14.74089192,
        "meta_eccentricity": 0.0079963,
        "meta_inclination": 74.0186,
        "meta_ra_of_asc_node": 83.8736,
        "meta_arg_of_pericenter": 226.4237,
        "meta_mean_anomaly": 133.028,
        "meta_ephemeris_type": 0,
        "meta_classification_type": "U",
        "meta_norad_cat_id": 34949,
        "meta_element_set_no": 999,
        "meta_rev_at_epoch": 88556,
        "meta_bstar": 0.00052427,
        "meta_mean_motion_dot": 3.601e-05,
        "meta_mean_motion_ddot": 0,
        "tle_line1": "1 34949U 93036AEC 25359.93777808  .00003601  00000+0  52427-3 0  9995",
        "tle_line2": "2 34949  74.0186  83.8736 0079963 226.4237 133.0280 14.74089192885566"
      },
      "geometry": {
        "type": "Point",
        "coordinates": [
          74.33777869444673,
          -22.333299631621525
        ]
      }
    },
    {
      "type": "Feature",
      "properties": {
        "norad_id": 34953,
        "name": "COSMOS 2251 DEB",
        "group": "cosmos-2251-debris",
        "lat": 44.97220820589124,
        "lon": 15.83756994646412,
        "alt_km": 638.9032391399787,
        "timestamp": "2025-12-27T08:36:18.780224+00:00",
        "meta_object_name": "COSMOS 2251 DEB",
        "meta_object_id": "1993-036AEG",
        "meta_epoch": "2025-12-26T18:28:07.279680",
        "meta_mean_motion": 14.69090311,
        "meta_eccentricity": 0.00588544,
        "meta_inclination": 74.0933,
        "meta_ra_of_asc_node": 0.4208,
        "meta_arg_of_pericenter": 348.5878,
        "meta_mean_anomaly": 184.3184,
        "meta_ephemeris_type": 0,
        "meta_classification_type": "U",
        "meta_norad_cat_id": 34953,
        "meta_element_set_no": 999,
        "meta_rev_at_epoch": 88334,
        "meta_bstar": 0.0010446466,
        "meta_mean_motion_dot": 6.274e-05,
        "meta_mean_motion_ddot": 0,
        "tle_line1": "1 34953U 93036AEG 25360.76952870  .00006274  00000+0  10446-2 0  9990",
        "tle_line2": "2 34953  74.0933   0.4208 0058854 348.5878 184.3184 14.69090311883348"
      },
      "geometry": {
        "type": "Point",
        "coordinates": [
          15.83756994646412,
          44.97220820589124
        ]
      }
    },
    {
      "type": "Feature",
      "properties": {
        "norad_id": 34955,
        "name": "COSMOS 2251 DEB",
        "group": "cosmos-2251-debris",
        "lat": 42.407058693753214,
        "lon": -128.07924772402023,
        "alt_km": 588.7314753311812,
        "timestamp": "2025-12-27T08:36:18.780233+00:00",
        "meta_object_name": "COSMOS 2251 DEB",
        "meta_object_id": "1993-036AEJ",
        "meta_epoch": "2025-12-24T22:48:41.659488",
        "meta_mean_motion": 15.00737642,
        "meta_eccentricity": 0.00777361,
        "meta_inclination": 74.035,
        "meta_ra_of_asc_node": 221.6616,
        "meta_arg_of_pericenter": 288.4914,
        "meta_mean_anomaly": 70.7836,
        "meta_ephemeris_type": 0,
        "meta_classification_type": "U",
        "meta_norad_cat_id": 34955,
        "meta_element_set_no": 999,
        "meta_rev_at_epoch": 90217,
        "meta_bstar": 0.00061621674,
        "meta_mean_motion_dot": 8.298e-05,
        "meta_mean_motion_ddot": 0,
        "tle_line1": "1 34955U 93036AEJ 25358.95048217  .00008298  00000+0  61622-3 0  9992",
        "tle_line2": "2 34955  74.0350 221.6616 0077736 288.4914  70.7836 15.00737642902172"
      },
      "geometry": {
        "type": "Point",
        "coordinates": [
          -128.07924772402023,
          42.407058693753214
        ]
      }
    },
    {
      "type": "Feature",
      "properties": {
        "norad_id": 34962,
        "name": "COSMOS 2251 DEB",
        "group": "cosmos-2251-debris",
        "lat": -45.83552852779583,
        "lon": 3.205798054772471,
        "alt_km": 734.5386219398624,
        "timestamp": "2025-12-27T08:36:18.780243+00:00",
        "meta_object_name": "COSMOS 2251 DEB",
        "meta_object_id": "1993-036AER",
        "meta_epoch": "2025-12-26T18:16:25.471488",
        "meta_mean_motion": 14.4656012,
        "meta_eccentricity": 0.00189343,
        "meta_inclination": 74.0287,
        "meta_ra_of_asc_node": 167.1714,
        "meta_arg_of_pericenter": 278.9591,
        "meta_mean_anomaly": 80.9424,
        "meta_ephemeris_type": 0,
        "meta_classification_type": "U",
        "meta_norad_cat_id": 34962,
        "meta_element_set_no": 999,
        "meta_rev_at_epoch": 87781,
        "meta_bstar": 0.00050029763,
        "meta_mean_motion_dot": 1.78e-05,
        "meta_mean_motion_ddot": 0,
        "tle_line1": "1 34962U 93036AER 25360.76140592  .00001780  00000+0  50030-3 0  9991",
        "tle_line2": "2 34962  74.0287 167.1714 0018934 278.9591  80.9424 14.46560120877814"
      },
      "geometry": {
        "type": "Point",
        "coordinates": [
          3.205798054772471,
          -45.83552852779583
        ]
      }
    },
    {
      "type": "Feature",
      "properties": {
        "norad_id": 34963,
        "name": "COSMOS 2251 DEB",
        "group": "cosmos-2251-debris",
        "lat": 8.402318915977084,
        "lon": 17.869603671565923,
        "alt_km": 751.1792614954657,
        "timestamp": "2025-12-27T08:36:18.780254+00:00",
        "meta_object_name": "COSMOS 2251 DEB",
        "meta_object_id": "1993-036AES",
        "meta_epoch": "2025-12-24T11:04:35.037696",
        "meta_mean_motion": 14.51189706,
        "meta_eccentricity": 0.00420275,
        "meta_inclination": 74.171,
        "meta_ra_of_asc_node": 20.8715,
        "meta_arg_of_pericenter": 215.0245,
        "meta_mean_anomaly": 144.8152,
        "meta_ephemeris_type": 0,
        "meta_classification_type": "U",
        "meta_norad_cat_id": 34963,
        "meta_element_set_no": 999,
        "meta_rev_at_epoch": 86971,
        "meta_bstar": 0.00126389,
        "meta_mean_motion_dot": 5.053e-05,
        "meta_mean_motion_ddot": 0,
        "tle_line1": "1 34963U 93036AES 25358.46151664  .00005053  00000+0  12639-2 0  9997",
        "tle_line2": "2 34963  74.1710  20.8715 0042027 215.0245 144.8152 14.51189706869712"
      },
      "geometry": {
        "type": "Point",
        "coordinates": [
          17.869603671565923,
          8.402318915977084
        ]
      }
    }
  ]
}